{
  "type": "FeatureCollection",
  "features": [
    {
      "type": "Feature",
      "properties": {
        "norad_id": 41556,
        "name": "ZIYUAN 3-2 (ZY 3-2)",
        "group": "resource",
        "lat": -42.81246933496079,
        "lon": 61.591243236085084,
        "alt_km": 502.16506070024207,
        "timestamp": "2025-12-06T09:34:16.575267+00:00",
        "meta_object_name": "ZIYUAN 3-2 (ZY 3-2)",
        "meta_object_id": "2016-033A",
        "meta_epoch": "2025-12-05T22:42:39.840480",
        "meta_mean_motion": 15.21354828,
        "meta_eccentricity": 0.00123789,
        "meta_inclination": 97.4056,
        "meta_ra_of_asc_node": 54.2254,
        "meta_arg_of_pericenter": 275.6589,
        "meta_mean_anomaly": 84.3235,
        "meta_ephemeris_type": 0,
        "meta_classification_type": "U",
        "meta_norad_cat_id": 41556,
        "meta_element_set_no": 999,
        "meta_rev_at_epoch": 52860,
        "meta_bstar": 0.0005160262,
        "meta_mean_motion_dot": 0.00011524,
        "meta_mean_motion_ddot": 0,
        "tle_line1": "1 41556U 16033A   25339.94629445  .00011524  00000+0  51603-3 0  9999",
        "tle_line2": "2 41556  97.4056  54.2254 0012378 275.6589  84.3235 15.21354828528604"
      },
      "geometry": {
        "type": "Point",
        "coordinates": [
          61.591243236085084,
          -42.81246933496079
        ]
      }
    },
    {
      "type": "Feature",
      "properties": {
        "norad_id": 41599,
        "name": "CARTOSAT-2C",
        "group": "resource",
        "lat": -49.182067435976776,
        "lon": 46.46132395240477,
        "alt_km": 520.439183235856,
        "timestamp": "2025-12-06T09:34:16.575278+00:00",
        "meta_object_name": "CARTOSAT-2C",
        "meta_object_id": "2016-040A",
        "meta_epoch": "2025-12-05T22:43:28.339392",
        "meta_mean_motion": 15.19193292,
        "meta_eccentricity": 0.00110329,
        "meta_inclination": 97.4775,
        "meta_ra_of_asc_node": 37.2672,
        "meta_arg_of_pericenter": 85.762,
        "meta_mean_anomaly": 274.4875,
        "meta_ephemeris_type": 0,
        "meta_classification_type": "U",
        "meta_norad_cat_id": 41599,
        "meta_element_set_no": 999,
        "meta_rev_at_epoch": 52437,
        "meta_bstar": 0.00037075467,
        "meta_mean_motion_dot": 7.747e-05,
        "meta_mean_motion_ddot": 0,
        "tle_line1": "1 41599U 16040A   25339.94685578  .00007747  00000+0  37075-3 0  9992",
        "tle_line2": "2 41599  97.4775  37.2672 0011032  85.7620 274.4875 15.19193292524371"
      },
      "geometry": {
        "type": "Point",
        "coordinates": [
          46.46132395240477,
          -49.182067435976776
        ]
      }
    },
    {
      "type": "Feature",
      "properties": {
        "norad_id": 41601,
        "name": "SKYSAT-C1",
        "group": "resource",
        "lat": 62.87758023869462,
        "lon": 3.927084889328017,
        "alt_km": 460.73446871320994,
        "timestamp": "2025-12-06T09:34:16.575288+00:00",
        "meta_object_name": "SKYSAT-C1",
        "meta_object_id": "2016-040C",
        "meta_epoch": "2025-12-05T16:03:19.185120",
        "meta_mean_motion": 15.32398413,
        "meta_eccentricity": 0.00030875,
        "meta_inclination": 96.9827,
        "meta_ra_of_asc_node": 17.0826,
        "meta_arg_of_pericenter": 33.3977,
        "meta_mean_anomaly": 326.746,
        "meta_ephemeris_type": 0,
        "meta_classification_type": "U",
        "meta_norad_cat_id": 41601,
        "meta_element_set_no": 999,
        "meta_rev_at_epoch": 52819,
        "meta_bstar": 0.00049721158,
        "meta_mean_motion_dot": 0.00015498,
        "meta_mean_motion_ddot": 0,
        "tle_line1": "1 41601U 16040C   25339.66897205  .00015498  00000+0  49721-3 0  9990",
        "tle_line2": "2 41601  96.9827  17.0826 0003087  33.3977 326.7460 15.32398413528191"
      },
      "geometry": {
        "type": "Point",
        "coordinates": [
          3.927084889328017,
          62.87758023869462
        ]
      }
    },
    {
      "type": "Feature",
      "properties": {
        "norad_id": 41603,
        "name": "LAPAN-A3",
        "group": "resource",
        "lat": -49.432787352256355,
        "lon": 149.76386912889737,
        "alt_km": 482.7601107382234,
        "timestamp": "2025-12-06T09:34:16.575299+00:00",
        "meta_object_name": "LAPAN-A3",
        "meta_object_id": "2016-040E",
        "meta_epoch": "2025-12-05T23:09:40.497120",
        "meta_mean_motion": 15.31469563,
        "meta_eccentricity": 0.00105049,
        "meta_inclination": 97.1421,
        "meta_ra_of_asc_node": 337.7681,
        "meta_arg_of_pericenter": 359.2002,
        "meta_mean_anomaly": 0.9222,
        "meta_ephemeris_type": 0,
        "meta_classification_type": "U",
        "meta_norad_cat_id": 41603,
        "meta_element_set_no": 999,
        "meta_rev_at_epoch": 52522,
        "meta_bstar": 0.00020964966,
        "meta_mean_motion_dot": 6.307e-05,
        "meta_mean_motion_ddot": 0,
        "tle_line1": "1 41603U 16040E   25339.96505205  .00006307  00000+0  20965-3 0  9999",
        "tle_line2": "2 41603  97.1421 337.7681 0010504 359.2002   0.9222 15.31469563525220"
      },
      "geometry": {
        "type": "Point",
        "coordinates": [
          149.76386912889737,
          -49.432787352256355
        ]
      }
    },
    {
      "type": "Feature",
      "properties": {
        "norad_id": 41604,
        "name": "BIROS",
        "group": "resource",
        "lat": -17.330826278732182,
        "lon": -170.62870806779344,
        "alt_km": 313.8466558798691,
        "timestamp": "2025-12-06T09:34:16.575309+00:00",
        "meta_object_name": "BIROS",
        "meta_object_id": "2016-040F",
        "meta_epoch": "2025-12-05T14:34:55.194528",
        "meta_mean_motion": 15.86794825,
        "meta_eccentricity": 0.00029431,
        "meta_inclination": 97.0681,
        "meta_ra_of_asc_node": 10.7706,
        "meta_arg_of_pericenter": 163.1234,
        "meta_mean_anomaly": 197.0136,
        "meta_ephemeris_type": 0,
        "meta_classification_type": "U",
        "meta_norad_cat_id": 41604,
        "meta_element_set_no": 999,
        "meta_rev_at_epoch": 52759,
        "meta_bstar": 0.0007938222,
        "meta_mean_motion_dot": 0.00206086,
        "meta_mean_motion_ddot": 0,
        "tle_line1": "1 41604U 16040F   25339.60758327  .00206086  00000+0  79382-3 0  9999",
        "tle_line2": "2 41604  97.0681  10.7706 0002943 163.1234 197.0136 15.86794825527597"
      },
      "geometry": {
        "type": "Point",
        "coordinates": [
          -170.62870806779344,
          -17.330826278732182
        ]
      }
    },
    {
      "type": "Feature",
      "properties": {
        "norad_id": 41727,
        "name": "GAOFEN-3",
        "group": "resource",
        "lat": -61.05380444362633,
        "lon": 150.57863569704097,
        "alt_km": 759.4281346739635,
        "timestamp": "2025-12-06T09:34:16.575319+00:00",
        "meta_object_name": "GAOFEN-3",
        "meta_object_id": "2016-049A",
        "meta_epoch": "2025-12-05T22:27:41.382432",
        "meta_mean_motion": 14.4221121,
        "meta_eccentricity": 0.00015352,
        "meta_inclination": 98.404,
        "meta_ra_of_asc_node": 345.626,
        "meta_arg_of_pericenter": 71.396,
        "meta_mean_anomaly": 288.7397,
        "meta_ephemeris_type": 0,
        "meta_classification_type": "U",
        "meta_norad_cat_id": 41727,
        "meta_element_set_no": 999,
        "meta_rev_at_epoch": 49079,
        "meta_bstar": 6.7946815e-05,
        "meta_mean_motion_dot": 1.8e-06,
        "meta_mean_motion_ddot": 0,
        "tle_line1": "1 41727U 16049A   25339.93589563  .00000180  00000+0  67947-4 0  9996",
        "tle_line2": "2 41727  98.4040 345.6260 0001535  71.3960 288.7397 14.42211210490795"
      },
      "geometry": {
        "type": "Point",
        "coordinates": [
          150.57863569704097,
          -61.05380444362633
        ]
      }
    },
    {
      "type": "Feature",
      "properties": {
        "norad_id": 41771,
        "name": "SKYSAT-C4",
        "group": "resource",
        "lat": 39.60315349857125,
        "lon": -168.3219074756938,
        "alt_km": 436.7272303368327,
        "timestamp": "2025-12-06T09:34:16.575329+00:00",
        "meta_object_name": "SKYSAT-C4",
        "meta_object_id": "2016-058B",
        "meta_epoch": "2025-12-05T23:37:17.451264",
        "meta_mean_motion": 15.41963061,
        "meta_eccentricity": 8.885e-05,
        "meta_inclination": 96.9373,
        "meta_ra_of_asc_node": 5.502,
        "meta_arg_of_pericenter": 128.1343,
        "meta_mean_anomaly": 231.9985,
        "meta_ephemeris_type": 0,
        "meta_classification_type": "U",
        "meta_norad_cat_id": 41771,
        "meta_element_set_no": 999,
        "meta_rev_at_epoch": 51563,
        "meta_bstar": 0.00050439761,
        "meta_mean_motion_dot": 0.00021425,
        "meta_mean_motion_ddot": 0,
        "tle_line1": "1 41771U 16058B   25339.98422976  .00021425  00000+0  50440-3 0  9998",
        "tle_line2": "2 41771  96.9373   5.5020 0000888 128.1343 231.9985 15.41963061515630"
      },
      "geometry": {
        "type": "Point",
        "coordinates": [
          -168.3219074756938,
          39.60315349857125
        ]
      }
    }
  ]
}